*******************************************************************************
Ephemeris / WWW_USER Tue Mar 27 22:05:29 2018 Pasadena, USA      / Horizons    
*******************************************************************************
Target body name: Mars (499)                      {source: mar097}
Center body name: Solar System Barycenter (0)     {source: DE431mx}
Center-site name: BODY CENTER
*******************************************************************************
Start time      : A.D. 2018-Feb-08 00:00:00.0000 TDB
Stop  time      : A.D. 2023-Feb-08 00:00:00.0000 TDB
Step-size       : 7200 minutes
*******************************************************************************
Center geodetic : 0.00000000,0.00000000,0.0000000 {E-lon(deg),Lat(deg),Alt(km)}
Center cylindric: 0.00000000,0.00000000,0.0000000 {E-lon(deg),Dxy(km),Dz(km)}
Center radii    : (undefined)                                                  
Output units    : AU-D                                                         
Output type     : GEOMETRIC cartesian states
Output format   : 2 (position and velocity)
Reference frame : ICRF/J2000.0                                                 
Coordinate systm: Ecliptic and Mean Equinox of Reference Epoch                 
*******************************************************************************
JDTDB
   X     Y     Z
   VX    VY    VZ
*******************************************************************************
$$SOE
2459627.500000000 = A.D. 2022-Feb-17 00:00:00.0000 TDB 
  -2.456651204232729E-01 -1.453409503847629E+00 -2.453021279378163E-02
   1.433566366124475E-02 -1.052697870586642E-03 -3.734691379261175E-04
2459632.500000000 = A.D. 2022-Feb-22 00:00:00.0000 TDB 
  -1.737405016761103E-01 -1.456987870783303E+00 -2.636828237103718E-02
   1.442882700263074E-02 -3.769336589210884E-04 -3.615913326028827E-04
2459637.500000000 = A.D. 2022-Feb-27 00:00:00.0000 TDB 
  -1.014312912018594E-01 -1.457162962258199E+00 -2.814445791752935E-02
   1.448932799774224E-02  3.083539030739044E-04 -3.487127283351544E-04
2459642.500000000 = A.D. 2022-Mar-04 00:00:00.0000 TDB 
  -2.890333024483251E-02 -1.453891127599166E+00 -2.985375647974372E-02
   1.451616644335682E-02  1.001560350237780E-03 -3.348423858567476E-04
2459647.500000000 = A.D. 2022-Mar-09 00:00:00.0000 TDB 
   4.367272350497667E-02 -1.447137007622339E+00 -3.149125072369827E-02
   1.450841792463233E-02  1.700973908260315E-03 -3.199935415565395E-04
2459652.500000000 = A.D. 2022-Mar-14 00:00:00.0000 TDB 
   1.161218034014668E-01 -1.436874066139042E+00 -3.305209006434103E-02
   1.446524533806789E-02  2.404777547478434E-03 -3.041837368599713E-04
2459657.500000000 = A.D. 2022-Mar-19 00:00:00.0000 TDB 
   1.882649010402406E-01 -1.423085107503605E+00 -3.453152297729137E-02
   1.438591102237472E-02  3.111052730226218E-03 -2.874350488764042E-04
2459662.500000000 = A.D. 2022-Mar-24 00:00:00.0000 TDB 
   2.599195942812724E-01 -1.405762773305751E+00 -3.592492036040765E-02
   1.426978919562312E-02  3.817784147968321E-03 -2.697743969441942E-04
2459667.500000000 = A.D. 2022-Mar-29 00:00:00.0000 TDB 
   3.309006364514978E-01 -1.384910010819289E+00 -3.722779980643735E-02
   1.411637793376437E-02  4.522865982932789E-03 -2.512336077550461E-04
2459672.500000000 = A.D. 2022-Apr-03 00:00:00.0000 TDB 
   4.010206061430809E-01 -1.360540505500687E+00 -3.843585061867814E-02
   1.392531115366628E-02  5.224110180226978E-03 -2.318495215745387E-04
2459677.500000000 = A.D. 2022-Apr-08 00:00:00.0000 TDB 
   4.700906159378747E-01 -1.332679069519020E+00 -3.954495934283914E-02
   1.369637039832035E-02  5.919255955156074E-03 -2.116641916703382E-04
2459682.500000000 = A.D. 2022-Apr-13 00:00:00.0000 TDB 
   5.379210773272154E-01 -1.301361978128446E+00 -4.055123558172919E-02
   1.342949552789646E-02  6.605980838671591E-03 -1.907248344102488E-04
2459687.500000000 = A.D. 2022-Apr-18 00:00:00.0000 TDB 
   6.043225179217205E-01 -1.266637245804191E+00 -4.145103784067843E-02
   1.312479463716347E-02  7.281913800570536E-03 -1.690837585607019E-04
2459692.500000000 = A.D. 2022-Apr-23 00:00:00.0000 TDB 
   6.691064457527540E-01 -1.228564834269801E+00 -4.224099909566020E-02
   1.278255312582010E-02  7.944649594413745E-03 -1.467984016096326E-04
2459697.500000000 = A.D. 2022-Apr-28 00:00:00.0000 TDB 
   7.320862542656078E-01 -1.187216784923840E+00 -4.291805177164247E-02
   1.240324096273339E-02  8.591764339977723E-03 -1.239311216164022E-04
2459702.500000000 = A.D. 2022-May-03 00:00:00.0000 TDB 
   7.930781604020878E-01 -1.142677268897500E+00 -4.347945181579581E-02
   1.198751834052260E-02  9.220832873879826E-03 -1.005489096548395E-04
2459707.500000000 = A.D. 2022-May-08 00:00:00.0000 TDB 
   8.519021669229007E-01 -1.095042548850758E+00 -4.392280150609761E-02
   1.153623982073044E-02  9.829446946174601E-03 -7.672322217846312E-05
2459712.500000000 = A.D. 2022-May-13 00:00:00.0000 TDB 
   9.083830390446274E-01 -1.044420847624262E+00 -4.424607064170239E-02
   1.105045603699148E-02  1.041523398187383E-02 -5.252959062232421E-05
2459717.500000000 = A.D. 2022-May-18 00:00:00.0000 TDB 
   9.623512845278354E-01 -9.909321201518697E-01 -4.444761578638749E-02
   1.053141307175937E-02  1.097587691692378E-02 -2.804710531220850E-05
2459722.500000000 = A.D. 2022-May-23 00:00:00.0000 TDB 
   1.013644125531916E+00 -9.347077264282320E-01 -4.452619722381005E-02
   9.980549853178948E-03  1.150913419304766E-02 -3.358039383839944E-06
2459727.500000000 = A.D. 2022-May-28 00:00:00.0000 TDB 
   1.062106450110038E+00 -8.758900047997213E-01 -4.448099331740789E-02
   9.399492813731239E-03  1.201285936249961E-02  2.145270263134024E-05
2459732.500000000 = A.D. 2022-Jun-02 00:00:00.0000 TDB 
   1.107591731114933E+00 -8.146317466224156E-01 -4.431161202664843E-02
   8.790047940338559E-03  1.248502075634436E-02  4.629828724829992E-05
2459737.500000000 = A.D. 2022-Jun-07 00:00:00.0000 TDB 
   1.149962900333917E+00 -7.510955752346540E-01 -4.401809933881733E-02
   8.154190846338224E-03  1.292372034128821E-02  7.109048974495046E-05
2459742.500000000 = A.D. 2022-Jun-12 00:00:00.0000 TDB 
   1.189093165995189E+00 -6.854532340194638E-01 -4.360094441190632E-02
   7.494054309442405E-03  1.332721100960175E-02  9.574034564557339E-05
2459747.500000000 = A.D. 2022-Jun-17 00:00:00.0000 TDB 
   1.224866762397022E+00 -6.178847901571637E-01 -4.306108129798915E-02
   6.811913379837184E-03  1.369391278256955E-02  1.201589665530689E-04
2459752.500000000 = A.D. 2022-Jun-22 00:00:00.0000 TDB 
   1.257179621202493E+00 -5.485777623388295E-01 -4.239988714976795E-02
   6.110168933201611E-03  1.402242728389606E-02  1.442581658077270E-04
2459757.500000000 = A.D. 2022-Jun-27 00:00:00.0000 TDB 
   1.285939955074798E+00 -4.777261820924645E-01 -4.161917687052797E-02
   5.391329371122147E-03  1.431154968648216E-02  1.679511188089894E-04
2459762.500000000 = A.D. 2022-Jul-02 00:00:00.0000 TDB 
   1.311068745803127E+00 -4.055295996278582E-01 -4.072119426395138E-02
   4.657990581133065E-03  1.456027869781369E-02  1.911531813463116E-04
2459767.500000000 = A.D. 2022-Jul-07 00:00:00.0000 TDB 
   1.332500130703810E+00 -3.321920461645073E-01 -3.970859978124675E-02
   3.912815245613426E-03  1.476782424434652E-02  2.137824951322577E-04
2459772.500000000 = A.D. 2022-Jul-12 00:00:00.0000 TDB 
   1.350181682921796E+00 -2.579209654320490E-01 -3.858445500483292E-02
   3.158511439752086E-03  1.493361207603975E-02  2.357605479305170E-04
2459777.500000000 = A.D. 2022-Jul-17 00:00:00.0000 TDB 
   1.364074583212584E+00 -1.829261275429279E-01 -3.735220409754456E-02
   2.397810544875736E-03  1.505728594177401E-02  2.570128812657009E-04
2459782.500000000 = A.D. 2022-Jul-22 00:00:00.0000 TDB 
   1.374153682632165E+00 -1.074185386327791E-01 -3.601565248888194E-02
   1.633445602072231E-03  1.513870736945300E-02  2.774695757267791E-04
2459787.500000000 = A.D. 2022-Jul-27 00:00:00.0000 TDB 
   1.380407457410388E+00 -3.160935939606584E-02 -3.457894309300253E-02
   8.681301764346904E-04  1.517795238972728E-02  2.970656174515573E-04
2459792.500000000 = A.D. 2022-Aug-01 00:00:00.0000 TDB 
   1.382837859181467E+00  4.429115486229287E-02 -3.304653041460330E-02
   1.045376048790593E-04  1.517530593719357E-02  3.157414041944652E-04
2459797.500000000 = A.D. 2022-Aug-06 00:00:00.0000 TDB 
   1.381460065435447E+00  1.200746807297052E-01 -3.142315291678661E-02
  -6.547183188687561E-04  1.513125431339456E-02  3.334430436517645E-04
2459802.500000000 = A.D. 2022-Aug-11 00:00:00.0000 TDB 
   1.376302136528341E+00  1.955358088665972E-01 -2.971380401686825E-02
  -1.407101094223843E-03  1.504647514907797E-02  3.501224789800126E-04
2459807.500000000 = A.D. 2022-Aug-16 00:00:00.0000 TDB 
   1.367404586942577E+00  2.704729722280216E-01 -2.792370211000136E-02
  -2.150168056905663E-03  1.492182559708459E-02  3.657377517938221E-04
2459812.500000000 = A.D. 2022-Aug-21 00:00:00.0000 TDB 
   1.354819879536110E+00  3.446893119908828E-01 -2.605826001833031E-02
  -2.881584856754427E-03  1.475832942340486E-02  3.802530944337633E-04
2459817.500000000 = A.D. 2022-Aug-26 00:00:00.0000 TDB 
   1.338611852260822E+00  4.179934743665328E-01 -2.412305422417816E-02
  -3.599137734150801E-03  1.455716249771870E-02  3.936388157744729E-04
2459822.500000000 = A.D. 2022-Aug-31 00:00:00.0000 TDB 
   1.318855087417103E+00  4.902003330527924E-01 -2.212379425038256E-02
  -4.300744187320410E-03  1.431963730463880E-02  4.058713277267896E-04
2459827.500000000 = A.D. 2022-Sep-05 00:00:00.0000 TDB 
   1.295634233795897E+00  5.611316335519037E-01 -2.006629253268019E-02
  -4.984461416638782E-03  1.404718731763201E-02  4.169330575436859E-04
2459832.500000000 = A.D. 2022-Sep-10 00:00:00.0000 TDB 
   1.269043292031121E+00  6.306165571087283E-01 -1.795643506800844E-02
  -5.648492402454954E-03  1.374135075118372E-02  4.268121386131119E-04
